#dP2025  2  7  0  0  0.00000000      96 __u+U IGS20 FIT  IAC
## 2352 432000.00000000   900.00000000 60713 0.0000000000000
+  131   C01C02C03C04C05C06C07C08C09C10C11C12C13C14C16C19C20
+        C21C22C23C24C25C26C27C28C29C30C32C33C34C35C36C37C38
+        C39C40C41C42C43C44C45C59C60C62E02E03E04E05E06E07E08
+        E09E10E11E12E13E14E15E18E19E21E24E25E26E27E29E30E31
+        E33E34E36G01G02G03G04G05G06G07G08G09G10G11G12G13G14
+        G15G16G17G18G19G20G21G22G23G24G25G26G27G28G29G30G31
+        G32J02J03J04J07R01R02R03R04R05R07R08R09R10R11R12R13
+        R14R15R16R17R18R19R20R21R22R23R24R26  0  0  0  0  0
++        16 16  0 16 16  9  9  9  9  9  8  8  9  9  9  7  7
++         7  7  7  7  7  7  7  7  7  7  7  7  7  7  7  7  8
++         8  8  7  7  7  7  7 17 17 17  4  4  4  4  4  4  4
++         4  4  4  4  4  5  4  4  5  4  4  4  4  4  5  4  4
++         4  4  4  4  4  3  3  4  3  4  4  4  4  3  4  4  4
++         4  4  4  4  4  4  4  4  4  4  3  4  4  7  3  4  3
++         4 10 10 10 16  7  6  6  6  6  6  6  6 14  6  6 14
++         6  6  6  6  6  8  7  6  6 14  6  8  0  0  0  0  0
%c M  cc GPS ccc cccc cccc cccc cccc ccccc ccccc ccccc ccccc
%c cc cc ccc ccc cccc cccc cccc cccc ccccc ccccc ccccc ccccc
%f  0.0000000  0.000000000  0.00000000000  0.000000000000000
%f  0.0000000  0.000000000  0.00000000000  0.000000000000000
%i    0    0    0    0      0      0      0      0         0
%i    0    0    0    0      0      0      0      0         0
/* INFORMATION & ANALYSIS CENTER (IAC)            RAPID DATA
/* S/V CLOCKS ARE ALIGNED TO GNSS TIME                      
/* G:C1WC2W R:C1PC2P E:C1XC5X C:C2IC6I J:C1CC2S             
/* PCV:IGS20_2350 OL/AL:FES2004  NONE     YN ORB:CoN CLK:CoN
*  2025 02 07 10  0  0.00000000
PC01 -34342.638474  24490.352680    -75.126436   -346.943402
PC02   4354.292886  41844.126670  -2149.470412    621.451177
PC03      0.000000      0.000000      0.000000 999999.999999
PC04 -39638.337358  14472.702459    527.330912   -359.188803
PC05  21805.132616  35991.552339  -1726.046041   -269.550701
PC06  -1194.813222  33679.051293 -25054.513288    762.508241
PC07 -15043.159734  27741.009841  27976.208486    238.007803
PC08 -15120.506559  38713.280893  -7797.345024     64.708833
PC09   5220.028435  37271.738819 -17798.258550   -834.368806
PC10  -6211.973374  28546.866525  30635.544692   -436.941485
PC11 -18804.778171 -18995.922216  -7958.460886    373.273463
PC12  -1518.397437 -18009.234607 -21225.849236   -199.320771
PC13 -11070.213691  39157.261060 -11379.727021     55.293093
PC14 -10998.998971 -11548.247755  22905.393372   -747.694055
PC16  -2586.915151  32166.357620 -26582.613823   -124.118639
PC19  19211.891847   4612.172566 -19693.707547   -961.723191
PC20   2966.733884  15727.535664 -22845.004056   -863.589294
PC21  16969.688231 -18439.798666  12325.735025   -903.407864
PC22  25620.949822  -9877.027989  -5062.867768    250.818130
PC23 -16078.576822   6074.710195 -21991.289836   -932.612770
PC24  -2914.619279 -27299.750368  -4949.880131    662.606668
PC25 -13900.419823 -14623.656101 -19287.447816    639.060785
PC26   8507.576288 -23820.347791  11726.496101   -416.697427
PC27  -8407.942315  13716.329560  22782.686549    433.992141
PC28 -21374.130208   1610.350077  17877.413631    340.360643
PC29  24134.612934  13997.977853    429.937657    399.447365
PC30  10350.813150  19632.393082  16893.575750     99.618875
PC32 -16890.625911  18538.486830 -12202.396582   -912.606688
PC33 -19148.351129  -4621.185410  19763.528836   -951.032743
PC34 -11946.633397 -19698.043998 -15777.969815    624.091623
PC35  21825.137770  -1775.882563 -17291.806312    132.098893
PC36  13669.621854  14679.372873  19418.636586    261.998215
PC37  -9338.369932  23331.208131 -12162.985866   -912.440589
PC38 -19378.189312  37425.549997   2719.995206    207.315565
PC39  -6694.509451  27928.894923 -30727.618677    -10.862442
PC40 -20933.841106  20952.380571  29881.103545   -119.537982
PC41 -25617.126835   9214.563427   6134.137469   -882.917022
PC42   -861.840214 -16656.752363  22424.021492   -590.588558
PC43 -23914.024308 -14372.180950  -1062.925036    100.687612
PC44   8028.761028 -14134.337721 -22698.495728    733.611456
PC45  16049.564324  -5277.706971  22194.181283   -228.362725
PC59 -32336.270478  27029.308841  -1144.620202     -0.000087
PC60   7248.533196  41516.770582   -977.079862      0.588931
PC62 -39625.206583  14408.752198    428.352406      0.087112
PE02  19141.994339    792.375648  22545.049487    195.866889
PE03  28766.771596   6051.123022  -3526.384877   -171.540788
PE04 -24528.031915   7330.582515 -14849.031523   -151.908590
PE05  15991.046214  15585.497177 -19427.549687   4825.622612
PE06 -16433.999921  12837.960739 -21019.623857    -79.607403
PE07   6525.222478 -16004.191666  24036.906597   -167.751236
PE08  24960.480898  -6810.628499  14390.421497   -413.176845
PE09  -6559.026946  15846.342525 -24122.116550   -767.203133
PE10  -7317.824362  18703.790756  21744.459924   -688.392323
PE11    319.334404  25645.385171  14757.575182   -808.092744
PE12 -13062.391699  10016.448038  24601.678073   -126.374561
PE13     18.874431 -25392.027696 -15215.075095    -30.119369
PE14  22419.194971  13967.552637  13985.074910    693.406222
PE15  13366.515419  -9225.427035 -24735.135634   -155.643198
PE18  -9643.794856 -16907.150678 -18480.048368   1085.465207
PE19 -28249.284411  -7225.600764   5103.496835   1345.927650
PE21  -5599.547266 -18404.881734 -22504.647793   -644.891024
PE24 -11707.590231  25624.528798   9096.856995  -1255.934291
PE25   5172.884045  18744.490400  22314.366145     14.033035
PE26 -13339.727262 -26210.639323   3401.696071   -131.757979
PE27  11639.567385 -25636.869888  -9122.965742   -576.575095
PE29 -16290.929328 -15649.697518  19131.910013    -68.619544
PE30  21798.709853 -17731.039898   9263.236869  -1217.929281
PE31 -21796.116189  17652.665997  -9474.225226    -53.652908
PE33 -18634.682574 -12490.216277  19322.698829     16.407179
PE34  18659.392453  12072.563592 -19547.569924   -162.221723
PE36  13028.000354  26405.628936  -2937.981413   -349.902629
PG01 -17367.068697  -6561.188139  19004.760396    105.119276
PG02 -19223.973004  -7666.465481  17332.366612 999999.999999
PG03 -17683.760217   4339.548859  19125.922513    659.677014
PG04 -26556.623109   -426.703888  -2096.083532    523.644605
PG05  11412.481425  10073.267303 -21934.410677   -201.267849
PG06   4392.905186  23935.060737  10558.300687   -171.553474
PG07 -12188.275032   9240.859623 -21142.118075    -13.609499
PG08 -24461.279469  -6357.823716  -9031.036089    475.838351
PG09 -23132.555903   7413.981656 -10911.895511    558.213146
PG10   9108.012764 -23685.463276   7472.090577   -308.741503
PG11  11848.239570  23794.028146   -717.079356   -748.549785
PG12  17614.948951  -1001.902539  19550.377085   -568.862321
PG13  17737.215935  13485.874842 -14873.795975    695.777265
PG14 -12022.686525  23255.318884   3662.975189    594.233012
PG15  24977.620447   3541.511144  -9052.494107    260.677383
PG16  -6455.456901 -15604.225015 -20755.428735    -58.878708
PG17 -10767.693326  13387.116088  20713.000818    437.438024
PG18  10477.258783 -11531.336182 -21445.980800   -654.366898
PG19   1168.083256  15279.530422  21590.486317    595.257177
PG20   3929.499245  20785.260703 -16047.815313    366.482248
PG21 -19664.687001 -14514.710457  12038.274237    101.859740
PG22  -7345.957447  23119.987788  11548.094198    -95.959174
PG23  16743.074535 -19207.104017  -7011.290634    418.952623
PG24  19676.555538   9930.895697  14625.426685   -454.981618
PG25  18569.399207 -13960.054008  12267.033672    495.425188
PG26    -28.160272 -22634.777245 -13770.508918    -80.750059
PG27 -15744.660752 -12801.806476 -17677.777388    -31.890937
PG28  -3633.902585 -23353.930028  12095.884430   -554.061156
PG29  23746.325982  -4995.585520 -10992.204875   -539.979337
PG30  -3520.185686  19878.135568 -16965.580915   -221.677641
PG31  -9306.166687 -24345.363940   3733.919617   -216.079524
PG32   4049.361439 -15000.207061  21759.760461   -526.571252
PJ02 -30106.695729  29574.590026   4452.736014     -1.122318
PJ03 -25646.866523  23731.892867  28750.561857     -0.451250
PJ04 -33018.432525  23236.364115  -7439.053509     -0.066338
PJ07 -25380.179945  33672.163271    -15.846879      0.010350
PR01   9880.635742 -13295.427750  19408.090992    113.907462
PR02  -7879.147087  -8567.628848  22755.116852    -37.656974
PR03 -22065.169870    889.107855  12873.179139    116.388028
PR04 -23560.862564   9110.858170  -3569.900750    276.125108
PR05 -12654.986569  12669.525949 -18161.390504    144.970811
PR07  22142.946918  -1057.313926 -12526.059119    100.332271
PR08  23307.554972  -9533.172802   4010.420962     -6.199104
PR09   3611.338202  20781.680224  14296.058021    236.585752
PR10   9567.162520   7407.111157  22450.719595   -281.877007
PR11  11746.421115 -11620.862847  19444.747740     -7.119166
PR12   6437.519446 -24508.542877   2884.458881     50.510492
PR13  -1732.131734 -22288.833515 -12298.270398    -56.102213
PR14 -10213.775252  -5411.783575 -22735.572747     27.711321
PR15 -11740.610695  13300.870653 -18313.393760     71.428827
PR16  -6404.593461  24488.309174  -3005.364665     33.116227
PR17 -20111.252454 -11987.818272  10091.995628    164.073519
PR18 -13913.547241    316.155508  21408.015494    185.824069
PR19  -2736.897307  11552.042816  22579.336667    -39.787737
PR20  14088.846338  19455.986906   8526.400267   -125.536225
PR21  20054.778656  13099.752717  -8795.323771   -174.731895
PR22  13309.922665  -1436.889987 -21681.147074    -59.545517
PR23    364.286334 -13220.932969 -21817.282308   -146.241119
PR24 -15257.522612 -18823.041618  -7937.672211    -91.461688
PR26  23872.156821  -8830.945677   1860.691513   -131.008719
EOF
